IRIDIUM 112             
1 41925U 17003J   25323.13030947  .00000328  00000+0  11017-3 0  9999
2 41925  86.3996 176.0704 0002159  82.7105 277.4336 14.34215467463168
IRIDIUM 111             
1 41926U 17003K   25323.11762007  .00000263  00000+0  86745-4 0  9996
2 41926  86.4001 176.1413 0001974  84.8599 275.2822 14.34213769463146
IRIDIUM 113             
1 42803U 17039A   25323.23711415  .00000206  00000+0  66589-4 0  9991
2 42803  86.3992  49.9172 0002064  91.2500 268.8932 14.34214266441096
IRIDIUM 123             
1 42804U 17039B   25323.27860450  .00000364  00000+0  12297-3 0  9991
2 42804  86.3958  81.3866 0001653  94.5556 265.5828 14.34214920439866
IRIDIUM 120             
1 42805U 17039C   25323.23078416  .00000385  00000+0  13047-3 0  9998
2 42805  86.3979  49.7294 0002060 106.2034 253.9388 14.34214493441082
IRIDIUM 115             
1 42806U 17039D   25323.25413573  .00000557  00000+0  15949-3 0  9992
2 42806  86.4518  49.8196 0001645 105.9047 254.2336 14.43276647443980
IRIDIUM 118             
1 42807U 17039E   25323.24055121  .00000261  00000+0  86238-4 0  9995
2 42807  86.3956  81.4015 0002014  89.7516 270.3911 14.34212558439859
IRIDIUM 117             
1 42808U 17039F   25323.25957701  .00000402  00000+0  13634-3 0  9998
2 42808  86.3956  81.3531 0001801  92.7723 267.3679 14.34215007439881
